AHMAT-1 (RS41S)
1 57206U 23091AS  25126.15905898  .00022867  00000-0  79737-3 0  9997
2 57206  97.5581 187.5358 0009049  78.8363 281.3894 15.29601549102652
SITRO-AIS-11 (SMIRENNY)
1 57208U 23091AU  25126.11589649  .00016397  00000-0  68235-3 0  9999
2 57208  97.5621 185.8865 0010489  74.7368 285.5028 15.23788126102525
KUZGTU-1 (RS47S)
1 57217U 23091AV  25126.11457572  .00012929  00000-0  61024-3 0  9994
2 57217  97.5613 183.3465 0015371  87.4376 272.8618 15.19478341102366
STRATOSAT-TK1-A (RS45S)
1 57322U 23091AW  25126.14287565  .00136608  00000-0  18016-2 0  9990
2 57322  97.5505 192.4906 0003908  95.9977 264.1723 15.57931253100859
STRATOSAT-TK1-E (RS52SE)
1 57323U 23091AX  25126.18081283  .00031132  00000-0  10148-2 0  9998
2 57323  97.5585 187.1329 0011539  83.6719 276.5836 15.31695544100501
STRATOSAT-TK1-B (RS52SB)
1 57324U 23091AY  25126.12187833  .00132167  00000-0  17743-2 0  9999
2 57324  97.5517 192.3848 0003901  94.6278 265.5423 15.57469082100848
STRATOSAT-TK1-D (RS52SD)
1 57326U 23091BA  25126.20353060  .00029019  00000-0  96765-3 0  9990
2 57326  97.5576 186.9165 0011773  83.8917 276.3665 15.30975223100334
STRATOSAT-TK1-V (RS52SV)
1 57327U 23091BB  25126.21761844  .00136373  00000-0  18038-2 0  9993
2 57327  97.5520 192.5939 0003928  93.1348 267.0357 15.57853053100702
VERONIKA
1 58261U 23174F   25126.14242256  .00121445  00000-0  13781-2 0  9990
2 58261  97.4138 210.4827 0007307 181.1204 179.0039 15.61929153 83297
ENSO
1 58470U 23185J   25126.12329983  .00058117  00000-0  95355-3 0  9998
2 58470  97.3758 200.2304 0008651 197.7453 162.3499 15.52209380 79681
METEOR M2-4
1 59051U 24039A   25126.17504269  .00000043  00000-0  39042-4 0  9997
2 59051  98.6469  86.9566 0005884 269.0678  90.9825 14.22362885 61402
SITRO-AIS-29
1 59052U 24039B   25126.13965132  .04005169  24831-5  13952-2 0  9995
2 59052  97.3983 102.5650 0007959 184.6074 175.5146 16.25234205 66596
SITRO-AIS-30
1 59053U 24039C   25126.12398842  .00927356  43682-3  15626-2 0  9993
2 59053  97.4020 101.9503 0011296 142.1563 218.0513 16.02731267 66542
SITRO-AIS-31
1 59054U 24039D   25126.14253100  .01744148  26471-2  15367-2 0  9998
2 59054  97.4069 102.4160 0009223 160.3281 199.8362 16.13631587 66596
SITRO-AIS-33
1 59055U 24039E   25126.20940540  .02438593  24366-5  13965-2 0  9998
2 59055  97.4054 102.6288 0008746 174.6289 185.5095 16.18957848 66602
SITRO-AIS-35
1 59056U 24039F   25126.09959175  .04011140  24818-5  13476-2 0  9996
2 59056  97.3920 102.6278 0007965 181.3706 178.7565 16.25662616 66592
SITRO-AIS-32
1 59057U 24039G   25126.16149420  .01124328  72922-3  15112-2 0  9995
2 59057  97.4131 102.2524 0010259 150.2820 209.9046 16.06583713 66578
SITRO-AIS-34
1 59058U 24039H   25126.20822493  .02827059  24444-5  14974-2 0  9994
2 59058  97.4043 102.6389 0008667 176.5368 183.5982 16.19989778 66607
SITRO-AIS-36
1 59059U 24039J   25125.79869868  .01566689  17903-2  17157-2 0  9998
2 59059  97.3995 102.0877 0010084 155.5176 204.6588 16.10108915 66535
SITRO-AIS-49
1 59060U 24039K   25126.21055293  .00998020  53564-3  14848-2 0  9992
2 59060  97.4043 102.3146 0010661 144.6201 215.5789 16.04861530 66584
SITRO-AIS-50
1 59062U 24039M   25123.79643292  .17653738  27301-5  24352-3 0  9992
2 59062  97.3990 100.4955 0009406 213.6684 146.4024 16.48757372 66254
SITRO-AIS-51
1 59061U 24039L   25124.14560288  .11249086  26374-5  51333-3 0  9993
2 59061  97.3842 100.7726 0008771 219.5766 140.4895 16.42537515 66303
SITRO-AIS-52
1 59063U 24039N   25123.19697148  .15262011  26408-5  23866-3 0  9990
2 59063  97.3867  99.9366 0010702 236.9191 123.1086 16.47867169 66163
ZORKIY-2M 2
1 59064U 24039P   25126.21249684  .00048787  00000-0  76338-3 0  9998
2 59064  97.4268  97.5279 0013546 125.1009 235.1517 15.53507848 66279
PARS-1
1 59065U 24039Q   25126.11600951  .00011499  00000-0  33038-3 0  9996
2 59065  97.4370  93.7688 0013274 133.9818 226.2523 15.35903496 65972
SITRO-AIS-25
1 59066U 24039R   25126.18328223  .00004062  00000-0  34935-3 0  9998
2 59066  95.3760 316.6181 0154791 306.9463  51.7666 14.88841434 64075
SITRO-AIS-26
1 59067U 24039S   25126.20576440  .00004280  00000-0  36925-3 0  9991
2 59067  95.3762 316.5980 0154967 307.0828  51.6311 14.88694563 64071
SITRO-AIS-27
1 59068U 24039T   25126.20821657  .00004429  00000-0  37948-3 0  9996
2 59068  95.3763 316.7116 0154217 306.4762  52.2333 14.89016563 64085
SITRO-AIS-28
1 59071U 24039U   25126.19622761  .00004349  00000-0  37247-3 0  9996
2 59071  95.3764 316.7279 0154098 306.4292  52.2804 14.89056224 64086
SONATE-2
1 59112U 24043Q   25125.81841563  .00021370  00000-0  63816-3 0  9992
2 59112  97.5081 256.3410 0010847 233.3596 126.6650 15.34576653 65004
HORS-1
1 57188U 23091Y   25126.18691863  .00010487  00000-0  51186-3 0  9996
2 57188  97.5618 183.7280 0012266  80.3128 279.9490 15.18407538102392
HORS-2
1 57196U 23091AG  25126.15075644  .00012066  00000-0  54861-3 0  9993
2 57196  97.5634 184.8128 0011873  79.2210 281.0361 15.20827764102452
ZORKIY-2M 6
1 59774U 24092B   25126.16305227  .00011015  00000-0  52316-3 0  9999
2 59774  97.6088 243.3991 0011680 158.8949 201.2769 15.19349846 53558
ZORKIY-2M 4
1 59775U 24092C   25126.22614640  .00011169  00000-0  52370-3 0  9999
2 59775  97.6218 244.2232 0011663 162.0646 198.1002 15.19791095 53588
SITRO-AIS-53
1 59776U 24092D   25125.84300562  .00016626  00000-0  73824-3 0  9992
2 59776  97.6169 243.5879 0011114 140.7061 219.4983 15.21574765 53523
SITRO-AIS-54
1 59777U 24092E   25126.10432755  .00015981  00000-0  71016-3 0  9997
2 59777  97.6166 243.8512 0011355 140.3771 219.8297 15.21553501 53560
SITRO-AIS-56
1 59778U 24092F   25125.81422647  .00018102  00000-0  79720-3 0  9992
2 59778  97.6162 243.6013 0011474 142.1988 218.0055 15.21832938 53526
RASSVET 1-4
1 59779U 24092G   25126.07027300  .00000322  00000-0  13760-3 0  9996
2 59779  98.6316 241.5264 0011504 332.1378  27.9188 14.31595769 50644
RASSVET 1-5
1 59780U 24092H   25126.20951294  .00000338  00000-0  14360-3 0  9995
2 59780  98.6315 241.6626 0011726 332.2578  27.7978 14.31595172 50662
RASSVET 1-6
1 59781U 24092J   25126.20847982  .00000337  00000-0  14307-3 0  9994
2 59781  98.6316 241.6648 0011495 331.9145  28.1417 14.31595887 50663
SITRO-AIS-55
1 59809U 24092K   25125.79705470  .00017561  00000-0  78212-3 0  9995
2 59809  97.6163 243.4658 0011537 141.5127 218.6933 15.21455566 53016
MESAT-1
1 60209U 24125G   25126.03534811  .00020401  00000-0  60163-3 0  9998
2 60209  97.2835 338.0635 0017597 259.5551 100.3709 15.34879741 46652
ISTSAT-1
1 60238U 24128D   25126.22110516  .00006748  00000-0  47827-3 0  9996
2 60238  61.9906 197.3582 0048052  49.5163 311.0102 15.04794332 45087
IONOSFERA-M 01
1 61735U 24199A   25126.13429413  .00000079  00000-0  55032-4 0  9995
2 61735  98.7742 357.3131 0000541 149.9209 210.1999 14.22662995 69820
IONOSFERA-M 02
1 61736U 24199B   25126.09885853  .00000085  00000-0  58049-4 0  9993
2 61736  98.7740 357.1933 0001956  74.3153 285.8241 14.22664074 72943
SITRO-AIS-16
1 61737U 24199C   25126.19147156  .00003343  00000-0  31248-3 0  9993
2 61737  97.3634 345.8132 0007235  12.3788 347.7610 14.94733429 70966
SITRO-AIS-15
1 61738U 24199D   25126.11694404  .00003028  00000-0  28319-3 0  9994
2 61738  97.3638 345.7604 0007069  14.1751 345.9667 14.94779179 70952
SITRO-AIS-21
1 61739U 24199E   25126.10623634  .00003098  00000-0  30152-3 0  9996
2 61739  97.3639 345.3307 0013114   0.0501   0.0718 14.93144227 70961
SITRO-AIS-22
1 61740U 24199F   25126.10223243  .00003394  00000-0  32926-3 0  9990
2 61740  97.3642 345.3418 0013211   1.3566 358.7688 14.93212415 71115
SITRO-AIS-24
1 61741U 24199G   25126.10346234  .00003315  00000-0  32228-3 0  9995
2 61741  97.3643 345.3428 0013206   2.8077 357.3216 14.93141061 71081
SITRO-AIS-23
1 61742U 24199H   25126.03006680  .00003899  00000-0  37719-3 0  9993
2 61742  97.3642 345.2860 0013046   2.8211 357.3081 14.93239171 70957
SITRO-AIS-13
1 61743U 24199J   25126.09978473  .00004187  00000-0  38785-3 0  9993
2 61743  97.3642 345.7813 0006953  18.2363 341.9106 14.94967371 71116
CSTP-2.11
1 61744U 24199K   25126.20356613  .00017717  00000-0  56527-3 0  9990
2 61744  97.3623 355.1982 0010712 309.8470  50.1829 15.32507109 71690
POLYTECH UNIVERSE-5 (RS70S)
1 61745U 24199L   25126.19894620  .00021464  00000-0  65621-3 0  9993
2 61745  97.3597 355.2885 0008343 320.6481  39.4155 15.33851623 74840
COLIBRI-S (RS67S)
1 61746U 24199M   25126.12111695  .00016956  00000-0  55465-3 0  9996
2 61746  97.3624 355.0003 0010820 311.8019  48.2298 15.31714796 74814
POLYTECH UNIVERSE-4 (RS71S)
1 61747U 24199N   25126.20813669  .00014410  00000-0  47919-3 0  9994
2 61747  97.3624 355.0345 0010885 309.6430  50.3850 15.31219511 74821
SITRO-AIS-44
1 61748U 24199P   25126.15401449  .00022508  00000-0  67120-3 0  9991
2 61748  97.3590 355.3424 0008102 320.3095  39.7554 15.34632372 74842
VIZARD-ION (RS68S)
1 61749U 24199Q   25126.10465677  .00019551  00000-0  61271-3 0  9995
2 61749  97.3625 355.1776 0010149 308.9678  51.0659 15.33065104 74826
MTUSI-1
1 61750U 24199R   25126.10779575  .00020887  00000-0  66077-3 0  9995
2 61750  97.3598 354.9568 0010402 323.3254  36.7275 15.32748453 74813
VLADIVOSTOK-1
1 61751U 24199S   25126.16426900  .00010372  00000-0  37147-3 0  9997
2 61751  97.3608 354.5903 0010412 323.5266  36.5264 15.28891800 74806
SITRO-AIS-14
1 61752U 24199T   25126.17801961  .00003116  00000-0  29092-3 0  9991
2 61752  97.3640 345.8302 0007016  15.7225 344.4213 14.94828327 74261
HORS-3 (RS81S)
1 61753U 24199U   25126.20585192  .00019752  00000-0  62365-3 0  9994
2 61753  97.3593 355.1235 0009229 320.1133  39.9430 15.32834099 74833
HORS-4 (RS82S)
1 61754U 24199V   25126.15974845  .00020061  00000-0  61959-3 0  9999
2 61754  97.3588 355.1782 0009179 320.9615  39.0965 15.33534216 74835
SITRO-AIS-43
1 61755U 24199W   25126.14799932  .00022042  00000-0  65618-3 0  9998
2 61755  97.3590 355.3496 0007953 320.0661  39.9996 15.34692048 74846
